{
"type": "FeatureCollection",
"name": "weccstuff",
"crs": { "type": "name", "properties": { "name": "urn:ogc:def:crs:OGC:1.3:CRS84" } },
"features": [
{ "type": "Feature", "properties": { "scalerank": 1, "featurecla": "Admin-0 country", "labelrank": 2, "sovereignt": "Mexico", "sov_a3": "MEX", "adm0_dif": 0, "level": 2, "type": "Sovereign country", "admin": "Mexico", "adm0_a3": "MEX", "geou_dif": 0, "geounit": "Mexico", "gu_a3": "MEX", "su_dif": 0, "subunit": "Mexico", "su_a3": "MEX", "brk_diff": 0, "name": "Mexico", "name_long": "Mexico", "brk_a3": "MEX", "brk_name": "Mexico", "brk_group": null, "abbrev": "Mex.", "postal": "MX", "formal_en": "United Mexican States", "formal_fr": null, "note_adm0": null, "note_brk": null, "name_sort": "Mexico", "name_alt": null, "mapcolor7": 6, "mapcolor8": 1, "mapcolor9": 7, "mapcolor13": 3, "pop_est": 111211789, "gdp_md_est": 1563000, "pop_year": -99, "lastcensus": 2010, "gdp_year": -99, "economy": "4. Emerging region: MIKT", "income_grp": "3. Upper middle income", "wikipedia": -99, "fips_10": null, "iso_a2": "MX", "iso_a3": "MEX", "iso_n3": "484", "un_a3": "484", "wb_a2": "MX", "wb_a3": "MEX", "woe_id": -99, "adm0_a3_is": "MEX", "adm0_a3_us": "MEX", "adm0_a3_un": -99, "adm0_a3_wb": -99, "continent": "North America", "region_un": "Americas", "subregion": "Central America", "region_wb": "Latin America & Caribbean", "name_len": 6, "long_len": 6, "abbrev_len": 4, "tiny": -99, "homepart": 1, "filename": "MEX.geojson" }, "geometry": { "type": "Polygon", "coordinates": [ [ [ -113.871881069781864, 31.567608344035193 ], [ -114.205736660603506, 31.52404511161313 ], [ -114.776451178835032, 31.799532172161147 ], [ -114.936699795372121, 31.393484605427599 ], [ -114.771231859173511, 30.913617255165267 ], [ -114.673899298951767, 30.162681179315992 ], [ -114.330974494262918, 29.75043244070741 ], [ -115.518653937626993, 29.556361599235398 ], [ -115.887365282029577, 30.180793768834178 ], [ -116.258350389452929, 30.83646434175358 ], [ -116.721526252084985, 31.635743720012044 ], [ -117.127759999999853, 32.53534 ], [ -117.295937691273878, 33.04622461520389 ], [ -117.944, 33.621236431201396 ], [ -118.410602275897489, 33.740909223124504 ], [ -118.519894822799714, 34.027781577575752 ], [ -119.081, 34.078 ], [ -119.438840642016686, 34.348477178284298 ], [ -120.36778, 34.44711 ], [ -120.62286, 34.60855 ], [ -120.74433, 35.156860000000108 ], [ -121.714569999999881, 36.16153 ], [ -122.54747, 37.551760000000115 ], [ -122.51201, 37.783390000000132 ], [ -122.95319, 38.113710000000111 ], [ -123.7272, 38.951660000000118 ], [ -123.86517, 39.766990000000128 ], [ -124.39807, 40.3132 ], [ -124.17886, 41.142020000000116 ], [ -124.2137, 41.999640000000142 ], [ -124.53284, 42.765990000000102 ], [ -124.14214, 43.70838 ], [ -124.020535, 44.615895 ], [ -123.89893, 45.52341 ], [ -124.079635, 46.86475 ], [ -124.39567, 47.72017000000011 ], [ -124.687210083007827, 48.184432983398551 ], [ -124.566101074218764, 48.379714965820398 ], [ -123.12, 48.04 ], [ -122.58736, 47.096 ], [ -122.34, 47.36 ], [ -122.5, 48.18 ], [ -122.84, 49.0 ], [ -122.97421, 49.002537777777803 ], [ -124.91024, 49.98456 ], [ -125.62461, 50.41656 ], [ -104.277009040143255, 50.346761183484816 ], [ -104.01810150631627, 48.948660500819159 ], [ -103.603849452193117, 32.016107788535116 ], [ -108.24, 31.754853718166402 ], [ -108.24194, 31.34222 ], [ -109.035, 31.341940000000161 ], [ -111.02361, 31.33472 ], [ -113.30498, 32.03914 ], [ -113.871881069781864, 31.567608344035193 ] ] ] } }
]
}
